IRIDIUM 144             
1 43249U 18030A   25169.66684529  .00000235  00000+0  76996-4 0  9993
2 43249  86.3959  82.3864 0002267  82.0420 278.1033 14.34217326378036
IRIDIUM 149             
1 43250U 18030B   25169.67318730  .00000232  00000+0  75613-4 0  9996
2 43250  86.3957  82.3550 0002242  80.8718 279.2731 14.34216848378054
IRIDIUM 157             
1 43251U 18030C   25169.69221620  .00000033  00000+0  48839-5 0  9990
2 43251  86.3960  82.3920 0002117  89.7790 270.3648 14.34217459378035
IRIDIUM 140             
1 43252U 18030D   25169.71124384  .00000154  00000+0  48024-4 0  9992
2 43252  86.3961  82.3977 0002388  80.8132 279.3334 14.34217277378096
IRIDIUM 145             
1 43253U 18030E   25169.69855839  .00000232  00000+0  75959-4 0  9990
2 43253  86.3961  82.3759 0002229  73.1873 286.9567 14.34217460378025
IRIDIUM 146             
1 43254U 18030F   25169.67953058  .00000165  00000+0  51828-4 0  9995
2 43254  86.3960  82.3972 0002282  73.7644 286.3802 14.34219112378036
IRIDIUM 148             
1 43255U 18030G   25169.85712320  .00000187  00000+0  59555-4 0  9990
2 43255  86.3962  82.3606 0002078  83.1488 276.9944 14.34217278378096
IRIDIUM 142             
1 43256U 18030H   25169.68587244 -.00000020  00000+0 -14069-4 0  9996
2 43256  86.3957  82.3344 0002012  68.5741 291.5669 14.34217428378035
